[{"OBJECT_NAME":"RADFXSAT (FOX-1B)","OBJECT_ID":"2017-073E","EPOCH":"2026-03-09T14:17:03.914016","MEAN_MOTION":15.10873817,"ECCENTRICITY":0.0154575,"INCLINATION":97.4852,"RA_OF_ASC_NODE":297.8938,"ARG_OF_PERICENTER":312.4525,"MEAN_ANOMALY":46.3719,"EPHEMERIS_TYPE":0,"CLASSIFICATION_TYPE":"U","NORAD_CAT_ID":43017,"ELEMENT_SET_NO":999,"REV_AT_EPOCH":45034,"BSTAR":0.00051457,"MEAN_MOTION_DOT":0.00011352,"MEAN_MOTION_DDOT":0},{"OBJECT_NAME":"SL-14 R\/B","OBJECT_ID":"1982-092B","EPOCH":"2026-03-09T17:18:39.150144","MEAN_MOTION":14.86666366,"ECCENTRICITY":0.00190036,"INCLINATION":82.5695,"RA_OF_ASC_NODE":141.37,"ARG_OF_PERICENTER":303.44,"MEAN_ANOMALY":173.5585,"EPHEMERIS_TYPE":0,"CLASSIFICATION_TYPE":"U","NORAD_CAT_ID":13553,"ELEMENT_SET_NO":999,"REV_AT_EPOCH":32893,"BSTAR":6.0425664e-5,"MEAN_MOTION_DOT":5.62e-6,"MEAN_MOTION_DDOT":0}]
